start=new Date('2022-02-19T00:00:00.000Z').valueOf();
sats=[{"PERIOD":"95.593","MEAN_MOTION":"15.06390198","SITE":"AFETR","RA_OF_ASC_NODE":"174.8089","OBJECT_TYPE":"PAYLOAD","INCLINATION":"53.0565","SEMIMAJOR_AXIS":"6925.379","RCS_SIZE":"LARGE","MEAN_MOTION_DOT":"-0.00000777","MEAN_ELEMENT_THEORY":"SGP4","REV_AT_EPOCH":"5789","MEAN_ANOMALY":"300.6345","OBJECT_ID":"2021-009AA","TLE_LINE2":"2 47572  53.0565 174.8089 0001651  59.4807 300.6345 15.06390198 57896","EPOCH":"2022-02-18T20:47:20.359104","GP_ID":"196332537","REF_FRAME":"TEME","ELEMENT_SET_NO":"999","PERIAPSIS":"546.100","TIME_SYSTEM":"UTC","MEAN_MOTION_DDOT":"0.0000000000000","LAUNCH_DATE":"2021-02-04","BSTAR":"-0.00003329300000","FILE":"3307132","CLASSIFICATION_TYPE":"U","CENTER_NAME":"EARTH","DECAY_DATE":null,"ARG_OF_PERICENTER":"59.4807","EPHEMERIS_TYPE":"0","COUNTRY_CODE":"US","NORAD_CAT_ID":"47572","ECCENTRICITY":"0.00016510","APOAPSIS":"548.387","TLE_LINE1":"1 47572U 21009AA  22049.86620786 -.00000777  00000-0 -33293-4 0  9994","OBJECT_NAME":"STARLINK-1971"},{"FILE":"3307132","CLASSIFICATION_TYPE":"U","BSTAR":"0.00022147000000","CENTER_NAME":"EARTH","DECAY_DATE":null,"ARG_OF_PERICENTER":"69.8652","EPHEMERIS_TYPE":"0","COUNTRY_CODE":"US","ECCENTRICITY":"0.00016010","NORAD_CAT_ID":"47573","APOAPSIS":"548.297","TLE_LINE1":"1 47573U 21009AB  22049.71138712  .00003019  00000-0  22147-3 0  9997","OBJECT_NAME":"STARLINK-1975","ELEMENT_SET_NO":"999","PERIAPSIS":"546.079","TIME_SYSTEM":"UTC","MEAN_MOTION_DDOT":"0.0000000000000","LAUNCH_DATE":"2021-02-04","REV_AT_EPOCH":"5786","MEAN_ANOMALY":"290.2509","OBJECT_ID":"2021-009AB","TLE_LINE2":"2 47573  53.0549 175.4973 0001601  69.8652 290.2509 15.06408391 57864","EPOCH":"2022-02-18T17:04:23.847168","GP_ID":"196333788","REF_FRAME":"TEME","PERIOD":"95.592","MEAN_MOTION":"15.06408391","SITE":"AFETR","RA_OF_ASC_NODE":"175.4973","OBJECT_TYPE":"PAYLOAD","INCLINATION":"53.0549","SEMIMAJOR_AXIS":"6925.323","RCS_SIZE":"LARGE","MEAN_ELEMENT_THEORY":"SGP4","MEAN_MOTION_DOT":"0.00003019"},{"OBJECT_ID":"2021-009AC","MEAN_ANOMALY":"291.9245","REV_AT_EPOCH":"5746","TLE_LINE2":"2 47574  53.0552 204.8348 0001507  68.1904 291.9245 15.06397320 57469","EPOCH":"2022-02-18T20:38:02.017248","REF_FRAME":"TEME","GP_ID":"196333536","MEAN_MOTION":"15.06397320","PERIOD":"95.592","RA_OF_ASC_NODE":"204.8348","SITE":"AFETR","RCS_SIZE":"LARGE","SEMIMAJOR_AXIS":"6925.357","INCLINATION":"53.0552","OBJECT_TYPE":"PAYLOAD","MEAN_ELEMENT_THEORY":"SGP4","MEAN_MOTION_DOT":"0.00000381","CENTER_NAME":"EARTH","BSTAR":"0.00004449800000","FILE":"3307132","CLASSIFICATION_TYPE":"U","ECCENTRICITY":"0.00015070","COUNTRY_CODE":"US","NORAD_CAT_ID":"47574","EPHEMERIS_TYPE":"0","ARG_OF_PERICENTER":"68.1904","DECAY_DATE":null,"OBJECT_NAME":"STARLINK-1976","TLE_LINE1":"1 47574U 21009AC  22049.85974557  .00000381  00000-0  44498-4 0  9991","APOAPSIS":"548.265","ELEMENT_SET_NO":"999","PERIAPSIS":"546.178","TIME_SYSTEM":"UTC","LAUNCH_DATE":"2021-02-04","MEAN_MOTION_DDOT":"0.0000000000000"},{"TLE_LINE2":"2 47575  53.0548 205.1800 0001239  72.4025 287.7099 15.06400663 58057","REV_AT_EPOCH":"5805","MEAN_ANOMALY":"287.7099","OBJECT_ID":"2021-009AD","GP_ID":"196304730","REF_FRAME":"TEME","EPOCH":"2022-02-18T18:46:35.178240","SITE":"AFETR","RA_OF_ASC_NODE":"205.1800","MEAN_MOTION":"15.06400663","PERIOD":"95.592","MEAN_MOTION_DOT":"0.00001211","MEAN_ELEMENT_THEORY":"SGP4","INCLINATION":"53.0548","OBJECT_TYPE":"PAYLOAD","RCS_SIZE":"LARGE","SEMIMAJOR_AXIS":"6925.347","FILE":"3306860","CLASSIFICATION_TYPE":"U","BSTAR":"0.00010018000000","CENTER_NAME":"EARTH","APOAPSIS":"548.070","OBJECT_NAME":"STARLINK-1977","TLE_LINE1":"1 47575U 21009AD  22049.78235160  .00001211  00000-0  10018-3 0  9997","DECAY_DATE":null,"ARG_OF_PERICENTER":"72.4025","ECCENTRICITY":"0.00012390","COUNTRY_CODE":"US","NORAD_CAT_ID":"47575","EPHEMERIS_TYPE":"0","PERIAPSIS":"546.353","ELEMENT_SET_NO":"999","MEAN_MOTION_DDOT":"0.0000000000000","LAUNCH_DATE":"2021-02-04","TIME_SYSTEM":"UTC"},{"TLE_LINE2":"2 47576  53.0545 165.0256 0001530  55.5754 304.5380 15.06395489 58026","OBJECT_ID":"2021-009AE","REV_AT_EPOCH":"5802","MEAN_ANOMALY":"304.5380","REF_FRAME":"TEME","GP_ID":"196333037","EPOCH":"2022-02-18T19:34:20.708544","RA_OF_ASC_NODE":"165.0256","SITE":"AFETR","PERIOD":"95.592","MEAN_MOTION":"15.06395489","MEAN_MOTION_DOT":"0.00001454","MEAN_ELEMENT_THEORY":"SGP4","SEMIMAJOR_AXIS":"6925.362","RCS_SIZE":"LARGE","OBJECT_TYPE":"PAYLOAD","INCLINATION":"53.0545","CENTER_NAME":"EARTH","BSTAR":"0.00011648000000","FILE":"3307132","CLASSIFICATION_TYPE":"U","TLE_LINE1":"1 47576U 21009AE  22049.81551746  .00001454  00000-0  11648-3 0  9992","OBJECT_NAME":"STARLINK-1978","APOAPSIS":"548.287","EPHEMERIS_TYPE":"0","NORAD_CAT_ID":"47576","COUNTRY_CODE":"US","ECCENTRICITY":"0.00015300","DECAY_DATE":null,"ARG_OF_PERICENTER":"55.5754","PERIAPSIS":"546.168","ELEMENT_SET_NO":"999","LAUNCH_DATE":"2021-02-04","MEAN_MOTION_DDOT":"0.0000000000000","TIME_SYSTEM":"UTC"},{"EPOCH":"2022-02-18T15:46:47.324352","GP_ID":"196333289","REF_FRAME":"TEME","OBJECT_ID":"2021-009AF","MEAN_ANOMALY":"289.2745","REV_AT_EPOCH":"5779","TLE_LINE2":"2 47577  53.0535 180.7486 0001379  70.8393 289.2745 15.06388012 57796","SEMIMAJOR_AXIS":"6925.385","RCS_SIZE":"LARGE","OBJECT_TYPE":"PAYLOAD","INCLINATION":"53.0535","MEAN_MOTION_DOT":"-0.00000559","MEAN_ELEMENT_THEORY":"SGP4","PERIOD":"95.593","MEAN_MOTION":"15.06388012","RA_OF_ASC_NODE":"180.7486","SITE":"AFETR","EPHEMERIS_TYPE":"0","COUNTRY_CODE":"US","NORAD_CAT_ID":"47577","ECCENTRICITY":"0.00013790","DECAY_DATE":null,"ARG_OF_PERICENTER":"70.8393","TLE_LINE1":"1 47577U 21009AF  22049.65749218 -.00000559  00000-0 -18642-4 0  9997","OBJECT_NAME":"STARLINK-1979","APOAPSIS":"548.205","CENTER_NAME":"EARTH","CLASSIFICATION_TYPE":"U","FILE":"3307132","BSTAR":"-0.00001864200000","TIME_SYSTEM":"UTC","LAUNCH_DATE":"2021-02-04","MEAN_MOTION_DDOT":"0.0000000000000","ELEMENT_SET_NO":"999","PERIAPSIS":"546.295"},{"CLASSIFICATION_TYPE":"U","FILE":"3307132","BSTAR":"0.00012585000000","CENTER_NAME":"EARTH","DECAY_DATE":null,"ARG_OF_PERICENTER":"71.4749","EPHEMERIS_TYPE":"0","ECCENTRICITY":"0.00013790","COUNTRY_CODE":"US","NORAD_CAT_ID":"47578","APOAPSIS":"548.163","TLE_LINE1":"1 47578U 21009AG  22049.65149205  .00001594  00000-0  12585-3 0  9995","OBJECT_NAME":"STARLINK-1980","ELEMENT_SET_NO":"999","PERIAPSIS":"546.253","TIME_SYSTEM":"UTC","MEAN_MOTION_DDOT":"0.0000000000000","LAUNCH_DATE":"2021-02-04","MEAN_ANOMALY":"288.6390","REV_AT_EPOCH":"5771","OBJECT_ID":"2021-009AG","TLE_LINE2":"2 47578  53.0546 185.7630 0001379  71.4749 288.6390 15.06401821 57712","EPOCH":"2022-02-18T15:38:08.913120","REF_FRAME":"TEME","GP_ID":"196334036","PERIOD":"95.592","MEAN_MOTION":"15.06401821","SITE":"AFETR","RA_OF_ASC_NODE":"185.7630","OBJECT_TYPE":"PAYLOAD","INCLINATION":"53.0546","SEMIMAJOR_AXIS":"6925.343","RCS_SIZE":"LARGE","MEAN_ELEMENT_THEORY":"SGP4","MEAN_MOTION_DOT":"0.00001594"},{"MEAN_ANOMALY":"298.6686","REV_AT_EPOCH":"5788","OBJECT_ID":"2021-009AH","TLE_LINE2":"2 47579  53.0545 174.9547 0001615  61.4465 298.6686 15.06408891 57887","EPOCH":"2022-02-18T19:59:33.011808","REF_FRAME":"TEME","GP_ID":"196332288","PERIOD":"95.592","MEAN_MOTION":"15.06408891","SITE":"AFETR","RA_OF_ASC_NODE":"174.9547","OBJECT_TYPE":"PAYLOAD","INCLINATION":"53.0545","SEMIMAJOR_AXIS":"6925.321","RCS_SIZE":"LARGE","MEAN_MOTION_DOT":"0.00002631","MEAN_ELEMENT_THEORY":"SGP4","CLASSIFICATION_TYPE":"U","FILE":"3307132","BSTAR":"0.00019544000000","CENTER_NAME":"EARTH","ARG_OF_PERICENTER":"61.4465","DECAY_DATE":null,"EPHEMERIS_TYPE":"0","COUNTRY_CODE":"US","NORAD_CAT_ID":"47579","ECCENTRICITY":"0.00016150","APOAPSIS":"548.305","TLE_LINE1":"1 47579U 21009AH  22049.83302097  .00002631  00000-0  19544-3 0  9991","OBJECT_NAME":"STARLINK-1981","ELEMENT_SET_NO":"999","PERIAPSIS":"546.068","TIME_SYSTEM":"UTC","MEAN_MOTION_DDOT":"0.0000000000000","LAUNCH_DATE":"2021-02-04"},{"REV_AT_EPOCH":"5774","MEAN_ANOMALY":"292.1697","OBJECT_ID":"2021-009AJ","TLE_LINE2":"2 47580  53.0557 184.8541 0001571  67.9459 292.1697 15.06392541 57741","EPOCH":"2022-02-18T20:30:04.978656","GP_ID":"196332538","REF_FRAME":"TEME","MEAN_MOTION":"15.06392541","PERIOD":"95.593","SITE":"AFETR","RA_OF_ASC_NODE":"184.8541","INCLINATION":"53.0557","OBJECT_TYPE":"PAYLOAD","RCS_SIZE":"LARGE","SEMIMAJOR_AXIS":"6925.371","MEAN_ELEMENT_THEORY":"SGP4","MEAN_MOTION_DOT":"0.00001518","BSTAR":"0.00012084000000","FILE":"3307132","CLASSIFICATION_TYPE":"U","CENTER_NAME":"EARTH","ARG_OF_PERICENTER":"67.9459","DECAY_DATE":null,"ECCENTRICITY":"0.00015710","COUNTRY_CODE":"US","NORAD_CAT_ID":"47580","EPHEMERIS_TYPE":"0","APOAPSIS":"548.324","OBJECT_NAME":"STARLINK-1982","TLE_LINE1":"1 47580U 21009AJ  22049.85422429  .00001518  00000-0  12084-3 0  9992","ELEMENT_SET_NO":"999","PERIAPSIS":"546.148","TIME_SYSTEM":"UTC","MEAN_MOTION_DDOT":"0.0000000000000","LAUNCH_DATE":"2021-02-04"},{"SITE":"AFETR","RA_OF_ASC_NODE":"165.5522","PERIOD":"95.592","MEAN_MOTION":"15.06404770","MEAN_ELEMENT_THEORY":"SGP4","MEAN_MOTION_DOT":"-0.00002117","OBJECT_TYPE":"PAYLOAD","INCLINATION":"53.0555","SEMIMAJOR_AXIS":"6925.334","RCS_SIZE":"LARGE","TLE_LINE2":"2 47581  53.0555 165.5522 0001509  64.6406 295.4739 15.06404770 58003","REV_AT_EPOCH":"5800","MEAN_ANOMALY":"295.4739","OBJECT_ID":"2021-009AK","REF_FRAME":"TEME","GP_ID":"196333789","EPOCH":"2022-02-18T16:49:48.081216","PERIAPSIS":"546.154","ELEMENT_SET_NO":"999","MEAN_MOTION_DDOT":"0.0000000000000","LAUNCH_DATE":"2021-02-04","TIME_SYSTEM":"UTC","CLASSIFICATION_TYPE":"U","FILE":"3307132","BSTAR":"-0.00012326000000","CENTER_NAME":"EARTH","APOAPSIS":"548.244","TLE_LINE1":"1 47581U 21009AK  22049.70125094 -.00002117  00000-0 -12326-3 0  9992","OBJECT_NAME":"STARLINK-1984","DECAY_DATE":null,"ARG_OF_PERICENTER":"64.6406","EPHEMERIS_TYPE":"0","NORAD_CAT_ID":"47581","COUNTRY_CODE":"US","ECCENTRICITY":"0.00015090"}];
